<?xml version="1.0" encoding="UTF-8" standalone="no" ?>
<gpx xmlns="http://www.topografix.com/GPX/1/1" creator="www.plotaroute.com" version="1.1"  xmlns:xsi="http://www.w3.org/2001/XMLSchema-instance" xsi:schemaLocation="http://www.topografix.com/GPX/1/1 http://www.topografix.com/GPX/1/1/gpx.xsd">
<metadata>
<desc>Route created on plotaroute.com</desc>
</metadata>
<rte>
<name>glen</name>
<rtept lat="53.846071" lon="-1.799132">
<ele>125</ele>
<time>2026-09-08T00:00:00Z</time>
<name>Start on </name>
<cmt>Start on </cmt>
<desc>Start on </desc>
<sym>Flag, Blue</sym>
</rtept>
<rtept lat="53.845899" lon="-1.799108">
<ele>123</ele>
<time>2026-09-08T00:00:16Z</time>
<name>Turn right</name>
<cmt>Turn right</cmt>
<desc>Turn right</desc>
<sym>Flag, Blue</sym>
</rtept>
<rtept lat="53.847579" lon="-1.803117">
<ele>134</ele>
<time>2026-09-08T00:12:40Z</time>
<name>Keep left</name>
<cmt>Keep left</cmt>
<desc>Keep left</desc>
<sym>Flag, Blue</sym>
</rtept>
<rtept lat="53.846181" lon="-1.799532">
<ele>126</ele>
<time>2026-09-08T00:16:45Z</time>
<name>Keep right</name>
<cmt>Keep right</cmt>
<desc>Keep right</desc>
<sym>Flag, Blue</sym>
</rtept>
<rtept lat="53.846058" lon="-1.799142">
<ele>125</ele>
<time>2026-09-08T00:17:11Z</time>
<name>Turn left</name>
<cmt>Turn left</cmt>
<desc>Turn left</desc>
<sym>Flag, Blue</sym>
</rtept>
<rtept lat="53.846088" lon="-1.79912">
<ele>125</ele>
<time>2026-09-08T00:17:15Z</time>
<name>FINISH</name>
<cmt>FINISH</cmt>
<desc>FINISH</desc>
<sym>Flag, Blue</sym>
</rtept>
</rte>
</gpx>