<?xml version="1.0" encoding="UTF-8" standalone="no" ?>
<gpx xmlns="http://www.topografix.com/GPX/1/1" creator="www.plotaroute.com" version="1.1"  xmlns:xsi="http://www.w3.org/2001/XMLSchema-instance" xsi:schemaLocation="http://www.topografix.com/GPX/1/1 http://www.topografix.com/GPX/1/1/gpx.xsd">
<metadata>
<desc>Route created on plotaroute.com</desc>
</metadata>
<rte>
<name>round_the_block</name>
<rtept lat="53.84839" lon="-1.766579">
<ele>114</ele>
<time>2026-09-08T00:00:00Z</time>
<name>Start on B</name>
<cmt>Start on Baildon Road</cmt>
<desc>Start on Baildon Road</desc>
<sym>Flag, Blue</sym>
</rtept>
<rtept lat="53.85037" lon="-1.767857">
<ele>124</ele>
<time>2026-09-08T00:04:47Z</time>
<name>Turn sharp</name>
<cmt>Turn sharp left onto Green Road</cmt>
<desc>Turn sharp left onto Green Road</desc>
<sym>Flag, Blue</sym>
</rtept>
<rtept lat="53.850262" lon="-1.768517">
<ele>126</ele>
<time>2026-09-08T00:05:54Z</time>
<name>Turn right</name>
<cmt>Turn right</cmt>
<desc>Turn right</desc>
<sym>Flag, Blue</sym>
</rtept>
<rtept lat="53.85028" lon="-1.768576">
<ele>126</ele>
<time>2026-09-08T00:06:01Z</time>
<name>Turn sligh</name>
<cmt>Turn slight left</cmt>
<desc>Turn slight left</desc>
<sym>Flag, Blue</sym>
</rtept>
<rtept lat="53.848441" lon="-1.770362">
<ele>129</ele>
<time>2026-09-08T00:10:14Z</time>
<name>Turn sligh</name>
<cmt>Turn slight right onto Green Road</cmt>
<desc>Turn slight right onto Green Road</desc>
<sym>Flag, Blue</sym>
</rtept>
<rtept lat="53.84829" lon="-1.770535">
<ele>129</ele>
<time>2026-09-08T00:10:30Z</time>
<name>Keep left</name>
<cmt>Keep left</cmt>
<desc>Keep left</desc>
<sym>Flag, Blue</sym>
</rtept>
<rtept lat="53.847066" lon="-1.771181">
<ele>124</ele>
<time>2026-09-08T00:12:35Z</time>
<name>Turn left</name>
<cmt>Turn left</cmt>
<desc>Turn left</desc>
<sym>Flag, Blue</sym>
</rtept>
<rtept lat="53.846921" lon="-1.771199">
<ele>124</ele>
<time>2026-09-08T00:12:58Z</time>
<name>Turn left</name>
<cmt>Turn left</cmt>
<desc>Turn left</desc>
<sym>Flag, Blue</sym>
</rtept>
<rtept lat="53.846823" lon="-1.770948">
<ele>124</ele>
<time>2026-09-08T00:13:22Z</time>
<name>Turn right</name>
<cmt>Turn right onto Cliffe Avenue</cmt>
<desc>Turn right onto Cliffe Avenue</desc>
<sym>Flag, Blue</sym>
</rtept>
<rtept lat="53.846698" lon="-1.771081">
<ele>124</ele>
<time>2026-09-08T00:13:42Z</time>
<name>Turn left</name>
<cmt>Turn left</cmt>
<desc>Turn left</desc>
<sym>Flag, Blue</sym>
</rtept>
<rtept lat="53.846333" lon="-1.770283">
<ele>130</ele>
<time>2026-09-08T00:14:57Z</time>
<name>Turn left </name>
<cmt>Turn left onto Glenholm Road</cmt>
<desc>Turn left onto Glenholm Road</desc>
<sym>Flag, Blue</sym>
</rtept>
<rtept lat="53.84712" lon="-1.768335">
<ele>128</ele>
<time>2026-09-08T00:18:15Z</time>
<name>Turn left </name>
<cmt>Turn left onto Sandals Road</cmt>
<desc>Turn left onto Sandals Road</desc>
<sym>Flag, Blue</sym>
</rtept>
<rtept lat="53.848109" lon="-1.76629">
<ele>115</ele>
<time>2026-09-08T00:20:27Z</time>
<name>Turn left </name>
<cmt>Turn left onto Baildon Road</cmt>
<desc>Turn left onto Baildon Road</desc>
<sym>Flag, Blue</sym>
</rtept>
<rtept lat="53.848384" lon="-1.766573">
<ele>114</ele>
<time>2026-09-08T00:21:00Z</time>
<name>FINISH</name>
<cmt>FINISH</cmt>
<desc>FINISH</desc>
<sym>Flag, Blue</sym>
</rtept>
</rte>
</gpx>