<?xml version="1.0" encoding="UTF-8" standalone="no" ?>
<gpx xmlns="http://www.topografix.com/GPX/1/1" creator="www.plotaroute.com" version="1.1"  xmlns:xsi="http://www.w3.org/2001/XMLSchema-instance" xsi:schemaLocation="http://www.topografix.com/GPX/1/1 http://www.topografix.com/GPX/1/1/gpx.xsd">
<metadata>
<desc>Route created on plotaroute.com</desc>
</metadata>
<rte>
<name>To_saltaire</name>
<rtept lat="53.848397" lon="-1.766586">
<ele>114</ele>
<time>2026-09-08T00:00:00Z</time>
<name>Start on B</name>
<cmt>Start on Baildon Road</cmt>
<desc>Start on Baildon Road</desc>
<sym>Flag, Blue</sym>
</rtept>
<rtept lat="53.849179" lon="-1.767396">
<ele>114</ele>
<time>2026-09-08T00:01:36Z</time>
<name>Turn left </name>
<cmt>Turn left onto Cliffe Avenue</cmt>
<desc>Turn left onto Cliffe Avenue</desc>
<sym>Flag, Blue</sym>
</rtept>
<rtept lat="53.847675" lon="-1.770061">
<ele>124</ele>
<time>2026-09-08T00:06:21Z</time>
<name>Turn right</name>
<cmt>Turn right</cmt>
<desc>Turn right</desc>
<sym>Flag, Blue</sym>
</rtept>
<rtept lat="53.84786" lon="-1.770709">
<ele>125</ele>
<time>2026-09-08T00:07:17Z</time>
<name>Turn right</name>
<cmt>Turn right</cmt>
<desc>Turn right</desc>
<sym>Flag, Blue</sym>
</rtept>
<rtept lat="53.84829" lon="-1.770535">
<ele>129</ele>
<time>2026-09-08T00:08:21Z</time>
<name>Turn sharp</name>
<cmt>Turn sharp left onto Green Road</cmt>
<desc>Turn sharp left onto Green Road</desc>
<sym>Flag, Blue</sym>
</rtept>
<rtept lat="53.847147" lon="-1.771775">
<ele>130</ele>
<time>2026-09-08T00:11:03Z</time>
<name>Keep right</name>
<cmt>Keep right</cmt>
<desc>Keep right</desc>
<sym>Flag, Blue</sym>
</rtept>
<rtept lat="53.846495" lon="-1.773927">
<ele>150</ele>
<time>2026-09-08T00:15:03Z</time>
<name>Turn sligh</name>
<cmt>Turn slight left</cmt>
<desc>Turn slight left</desc>
<sym>Flag, Blue</sym>
</rtept>
<rtept lat="53.846373" lon="-1.774151">
<ele>148</ele>
<time>2026-09-08T00:15:24Z</time>
<name>Keep left</name>
<cmt>Keep left</cmt>
<desc>Keep left</desc>
<sym>Flag, Blue</sym>
</rtept>
<rtept lat="53.846153" lon="-1.774292">
<ele>146</ele>
<time>2026-09-08T00:15:51Z</time>
<name>Keep right</name>
<cmt>Keep right</cmt>
<desc>Keep right</desc>
<sym>Flag, Blue</sym>
</rtept>
<rtept lat="53.846056" lon="-1.774357">
<ele>145</ele>
<time>2026-09-08T00:16:02Z</time>
<name>Keep right</name>
<cmt>Keep right</cmt>
<desc>Keep right</desc>
<sym>Flag, Blue</sym>
</rtept>
<rtept lat="53.845087" lon="-1.779795">
<ele>126</ele>
<time>2026-09-08T00:21:39Z</time>
<name>Keep right</name>
<cmt>Keep right</cmt>
<desc>Keep right</desc>
<sym>Flag, Blue</sym>
</rtept>
<rtept lat="53.845074" lon="-1.782582">
<ele>130</ele>
<time>2026-09-08T00:25:15Z</time>
<name>Turn sligh</name>
<cmt>Turn slight right</cmt>
<desc>Turn slight right</desc>
<sym>Flag, Blue</sym>
</rtept>
<rtept lat="53.845201" lon="-1.793236">
<ele>121</ele>
<time>2026-09-08T00:35:48Z</time>
<name>Turn left</name>
<cmt>Turn left</cmt>
<desc>Turn left</desc>
<sym>Flag, Blue</sym>
</rtept>
<rtept lat="53.84521" lon="-1.794756">
<ele>114</ele>
<time>2026-09-08T00:37:05Z</time>
<name>Turn sharp</name>
<cmt>Turn sharp left</cmt>
<desc>Turn sharp left</desc>
<sym>Flag, Blue</sym>
</rtept>
<rtept lat="53.842737" lon="-1.790782">
<ele>72</ele>
<time>2026-09-08T00:42:12Z</time>
<name>Keep right</name>
<cmt>Keep right</cmt>
<desc>Keep right</desc>
<sym>Flag, Blue</sym>
</rtept>
<rtept lat="53.841734" lon="-1.789929">
<ele>71</ele>
<time>2026-09-08T00:44:02Z</time>
<name>Turn left </name>
<cmt>Turn left onto Higher Coach Road</cmt>
<desc>Turn left onto Higher Coach Road</desc>
<sym>Flag, Blue</sym>
</rtept>
<rtept lat="53.841135" lon="-1.788828">
<ele>69</ele>
<time>2026-09-08T00:45:31Z</time>
<name>Turn right</name>
<cmt>Turn right</cmt>
<desc>Turn right</desc>
<sym>Flag, Blue</sym>
</rtept>
<rtept lat="53.840563" lon="-1.789017">
<ele>67</ele>
<time>2026-09-08T00:46:24Z</time>
<name>Turn right</name>
<cmt>Turn right</cmt>
<desc>Turn right</desc>
<sym>Flag, Blue</sym>
</rtept>
<rtept lat="53.840598" lon="-1.789371">
<ele>67</ele>
<time>2026-09-08T00:46:43Z</time>
<name>Turn left</name>
<cmt>Turn left</cmt>
<desc>Turn left</desc>
<sym>Flag, Blue</sym>
</rtept>
<rtept lat="53.840407" lon="-1.789515">
<ele>66</ele>
<time>2026-09-08T00:47:02Z</time>
<name>Keep left</name>
<cmt>Keep left</cmt>
<desc>Keep left</desc>
<sym>Flag, Blue</sym>
</rtept>
<rtept lat="53.839591" lon="-1.789709">
<ele>68</ele>
<time>2026-09-08T00:48:50Z</time>
<name>Turn sligh</name>
<cmt>Turn slight left</cmt>
<desc>Turn slight left</desc>
<sym>Flag, Blue</sym>
</rtept>
<rtept lat="53.839528" lon="-1.789292">
<ele>69</ele>
<time>2026-09-08T00:49:29Z</time>
<name>Turn right</name>
<cmt>Turn right onto Victoria Road</cmt>
<desc>Turn right onto Victoria Road</desc>
<sym>Flag, Blue</sym>
</rtept>
<rtept lat="53.838384" lon="-1.789569">
<ele>77</ele>
<time>2026-09-08T00:52:05Z</time>
<name>FINISH</name>
<cmt>FINISH</cmt>
<desc>FINISH</desc>
<sym>Flag, Blue</sym>
</rtept>
</rte>
</gpx>